OBJECT_NAME,OBJECT_ID,EPOCH,MEAN_MOTION,ECCENTRICITY,INCLINATION,RA_OF_ASC_NODE,ARG_OF_PERICENTER,MEAN_ANOMALY,EPHEMERIS_TYPE,CLASSIFICATION_TYPE,NORAD_CAT_ID,ELEMENT_SET_NO,REV_AT_EPOCH,BSTAR,MEAN_MOTION_DOT,MEAN_MOTION_DDOT
KUIPER-00603,2026-118W,2026-06-15T12:05:35.942208,15.37548788,.0005454,51.8683,61.4005,154.4169,205.7088,0,U,69287,999,372,.5544E-3,.20415E-3,0
KUIPER-00605,2026-118X,2026-06-15T12:13:00.533280,15.37013528,.0007536,51.8672,61.4330,161.5173,198.6088,0,U,69288,999,372,.57671E-3,.20893E-3,0
KUIPER-00606,2026-118Y,2026-06-15T12:02:05.914176,15.37733438,.0004675,51.8707,61.3847,144.9424,215.1871,0,U,69289,999,372,.56229E-3,.20837E-3,0
KUIPER-00607,2026-118Z,2026-06-15T12:07:05.005920,15.37414425,.0006105,51.8692,61.4075,156.1026,204.0246,0,U,69290,999,372,.59589E-3,.21883E-3,0
KUIPER-00608,2026-118AA,2026-06-15T04:38:38.577984,15.35237015,.0008762,51.8607,63.0621,169.7276,190.3890,0,U,69291,999,367,-.52473E-3,-.18591E-3,0
KUIPER-00610,2026-118AB,2026-06-15T11:53:28.792032,15.38369804,.0002664,51.8730,61.3425,132.4064,227.7149,0,U,69292,999,372,.78947E-3,.30067E-3,0
KUIPER-00613,2026-118AC,2026-06-15T04:44:51.626400,15.35110669,.0010103,51.8631,63.0926,177.2071,182.8973,0,U,69293,999,367,-.97974E-4,-.378E-4,0
KUIPER-00618,2026-118AD,2026-06-15T10:14:45.330720,15.38604397,.0001803,51.8730,61.6331,86.2417,273.8776,0,U,69294,999,371,.32795E-3,.12325E-3,0
KUIPER-00620,2026-118AE,2026-06-15T04:04:50.229984,15.38270113,.00028627,51.8728,62.9127,114.9539,245.1746,0,U,69295,999,367,.48805361E-3,.18347E-3,0
STARLINK-37501,2026-119A,2026-06-15T12:00:02.000160,15.72386402,.000116,97.2845,192.2258,85.4333,236.0697,0,U,69296,999,361,-.76865E-2,-.913458E-2,0
STARLINK-37496,2026-119B,2026-06-15T12:00:02.000160,15.72322934,.0001208,97.2844,192.2264,101.0328,221.4103,0,U,69297,999,361,-.21948E-1,-.2533292E-1,0
STARLINK-37519,2026-119C,2026-06-15T12:00:02.000160,15.71749867,.0001115,97.2845,192.2353,100.8530,242.6007,0,U,69298,999,361,-.68616E-2,-.804248E-2,0
STARLINK-37455,2026-119D,2026-06-12T14:07:06.079584,15.79682093,.00040545,97.2829,189.1634,36.6104,323.5440,0,U,69299,999,331,-.14431533E-2,-.255334E-2,0
STARLINK-37456,2026-119E,2026-06-15T12:00:02.000160,15.72297489,.0001234,97.2846,192.2389,94.9714,255.7467,0,U,69300,999,361,-.21713E-1,-.2507233E-1,0
STARLINK-37630,2026-119F,2026-06-15T12:00:02.000160,15.55700476,.0001927,97.2840,192.1430,81.2215,47.1727,0,U,69301,999,377,-.42564E-1,-.25364E-1,0
STARLINK-37804,2026-119G,2026-06-15T12:00:02.000160,15.53264389,.0002186,97.2845,192.1479,77.6566,53.2866,0,U,69302,999,377,-.43837E-1,-.2407595E-1,0
STARLINK-37730,2026-119H,2026-06-15T11:50:55.114080,15.80699369,.0002035,97.2822,192.2524,2.8377,357.2902,0,U,69303,999,377,.18622E-2,.370146E-2,0
STARLINK-37731,2026-119J,2026-06-15T12:00:02.000160,15.52604571,.0002461,97.2849,192.1476,88.6884,38.6228,0,U,69304,999,377,-.56638E-1,-.3008931E-1,0
STARLINK-37734,2026-119K,2026-06-15T12:00:02.000160,15.69983095,.000144,97.2842,192.2424,65.0700,293.3989,0,U,69305,999,377,-.23166E-1,-.2436256E-1,0
STARLINK-37701,2026-119L,2026-06-15T12:00:02.000160,15.77275817,.0001365,97.2843,192.2571,54.7283,341.9233,0,U,69306,999,377,-.94991E-2,-.1382544E-1,0
STARLINK-37732,2026-119M,2026-06-15T11:48:19.530144,15.80892376,.0001522,97.2820,192.2553,165.8430,194.2881,0,U,69307,999,377,.94939E-3,.186295E-2,0
STARLINK-37689,2026-119N,2026-06-15T12:00:02.000160,15.52736263,.0002188,97.2848,192.1523,82.1668,63.0514,0,U,69308,999,377,-.42295E-1,-.2294459E-1,0
STARLINK-37619,2026-119P,2026-06-15T11:45:51.977088,15.80885446,.0000917,97.2825,192.2576,125.8213,234.3140,0,U,69309,999,377,.83021E-3,.162389E-2,0
STARLINK-37794,2026-119Q,2026-06-15T12:00:02.000160,15.68490570,.0001145,97.2848,192.2488,76.2735,299.6189,0,U,69310,999,377,-.24942E-1,-.2461575E-1,0
STARLINK-37795,2026-119R,2026-06-15T12:00:02.000160,15.53882820,.0001983,97.2838,192.1601,73.6050,94.0777,0,U,69311,999,377,-.43329E-1,-.2430448E-1,0
STARLINK-37790,2026-119S,2026-06-15T12:00:02.000160,15.75532373,.000135,97.2843,192.2694,80.9830,344.2444,0,U,69312,999,377,-.14206E-1,-.1877292E-1,0
STARLINK-37676,2026-119T,2026-06-15T11:37:52.241952,15.80860125,.0002173,97.2821,192.2652,42.7140,317.4297,0,U,69313,999,377,.87801E-3,.171744E-2,0
STARLINK-37617,2026-119U,2026-06-15T12:00:02.000160,15.74408662,.000128,97.2843,192.2751,82.2011,357.0911,0,U,69314,999,377,-.20909E-1,-.2626247E-1,0
STARLINK-37627,2026-119V,2026-06-14T18:53:32.152416,15.80230891,.00014259,97.2817,191.5290,72.4250,287.7173,0,U,69315,999,366,-.32968523E-2,-.576083E-2,0
STARLINK-37738,2026-119W,2026-06-15T12:00:02.000160,15.74887501,.0001398,97.2842,192.2714,80.0606,350.2016,0,U,69316,999,377,-.19517E-1,-.2463046E-1,0
