KUIPER-00603            
1 69287U 26118W   26166.50388822  .00020415  00000+0  55440-3 0  9999
2 69287  51.8683  61.4005 0005454 154.4169 205.7088 15.37548788  3727
KUIPER-00605            
1 69288U 26118X   26166.50903395  .00020893  00000+0  57671-3 0  9996
2 69288  51.8672  61.4330 0007536 161.5173 198.6088 15.37013528  3723
KUIPER-00606            
1 69289U 26118Y   26166.50145734  .00020837  00000+0  56229-3 0  9998
2 69289  51.8707  61.3847 0004675 144.9424 215.1871 15.37733438  3724
KUIPER-00607            
1 69290U 26118Z   26166.50491905  .00021883  00000+0  59589-3 0  9998
2 69290  51.8692  61.4075 0006105 156.1026 204.0246 15.37414425  3721
KUIPER-00608            
1 69291U 26118AA  26166.19350206 -.00018591  00000+0 -52473-3 0  9991
2 69291  51.8607  63.0621 0008762 169.7276 190.3890 15.35237015  3673
KUIPER-00610            
1 69292U 26118AB  26166.49547213  .00030067  00000+0  78947-3 0  9995
2 69292  51.8730  61.3425 0002664 132.4064 227.7149 15.38369804  3724
KUIPER-00613            
1 69293U 26118AC  26166.19781975 -.00003780  00000+0 -97974-4 0  9994
2 69293  51.8631  63.0926 0010103 177.2071 182.8973 15.35110669  3672
KUIPER-00618            
1 69294U 26118AD  26166.42691355  .00012325  00000+0  32795-3 0  9995
2 69294  51.8730  61.6331 0001803  86.2417 273.8776 15.38604397  3713
KUIPER-00620            
1 69295U 26118AE  26166.17002581  .00018347  00000+0  48805-3 0  9994
2 69295  51.8728  62.9127 0002862 114.9539 245.1746 15.38270113  3677
STARLINK-37501          
1 69296U 26119A   26166.50002315 -.00913458  00000+0 -76865-2 0  9993
2 69296  97.2845 192.2258 0001160  85.4333 236.0697 15.72386402  3613
STARLINK-37496          
1 69297U 26119B   26166.50002315 -.02533292  00000+0 -21948-1 0  9991
2 69297  97.2844 192.2264 0001208 101.0328 221.4103 15.72322934  3612
STARLINK-37519          
1 69298U 26119C   26166.50002315 -.00804248  00000+0 -68616-2 0  9996
2 69298  97.2845 192.2353 0001115 100.8530 242.6007 15.71749867  3617
STARLINK-37455          
1 69299U 26119D   26163.58826481 -.00255334  00000+0 -14432-2 0  9993
2 69299  97.2829 189.1634 0004054  36.6104 323.5440 15.79682093  3317
STARLINK-37456          
1 69300U 26119E   26166.50002315 -.02507233  00000+0 -21713-1 0  9992
2 69300  97.2846 192.2389 0001234  94.9714 255.7467 15.72297489  3614
STARLINK-37630          
1 69301U 26119F   26166.50002315 -.02536400  00000+0 -42564-1 0  9998
2 69301  97.2840 192.1430 0001927  81.2215  47.1727 15.55700476  3774
STARLINK-37804          
1 69302U 26119G   26166.50002315 -.02407595  00000+0 -43837-1 0  9995
2 69302  97.2845 192.1479 0002186  77.6566  53.2866 15.53264389  3777
STARLINK-37730          
1 69303U 26119H   26166.49369345  .00370146  00000+0  18622-2 0  9995
2 69303  97.2822 192.2524 0002035   2.8377 357.2902 15.80699369  3776
STARLINK-37731          
1 69304U 26119J   26166.50002315 -.03008931  00000+0 -56638-1 0  9992
2 69304  97.2849 192.1476 0002461  88.6884  38.6228 15.52604571  3770
STARLINK-37734          
1 69305U 26119K   26166.50002315 -.02436256  00000+0 -23166-1 0  9997
2 69305  97.2842 192.2424 0001440  65.0700 293.3989 15.69983095  3773
STARLINK-37701          
1 69306U 26119L   26166.50002315 -.01382544  00000+0 -94991-2 0  9992
2 69306  97.2843 192.2571 0001365  54.7283 341.9233 15.77275817  3772
STARLINK-37732          
1 69307U 26119M   26166.49189271  .00186295  00000+0  94939-3 0  9993
2 69307  97.2820 192.2553 0001522 165.8430 194.2881 15.80892376  3778
STARLINK-37689          
1 69308U 26119N   26166.50002315 -.02294459  00000+0 -42295-1 0  9991
2 69308  97.2848 192.1523 0002188  82.1668  63.0514 15.52736263  3775
STARLINK-37619          
1 69309U 26119P   26166.49018492  .00162389  00000+0  83021-3 0  9999
2 69309  97.2825 192.2576 0000917 125.8213 234.3140 15.80885446  3776
STARLINK-37794          
1 69310U 26119Q   26166.50002315 -.02461575  00000+0 -24942-1 0  9998
2 69310  97.2848 192.2488 0001145  76.2735 299.6189 15.68490570  3770
STARLINK-37795          
1 69311U 26119R   26166.50002315 -.02430448  00000+0 -43329-1 0  9994
2 69311  97.2838 192.1601 0001983  73.6050  94.0777 15.53882820  3774
STARLINK-37790          
1 69312U 26119S   26166.50002315 -.01877292  00000+0 -14206-1 0  9998
2 69312  97.2843 192.2694 0001350  80.9830 344.2444 15.75532373  3779
STARLINK-37676          
1 69313U 26119T   26166.48463243  .00171744  00000+0  87801-3 0  9996
2 69313  97.2821 192.2652 0002173  42.7140 317.4297 15.80860125  3777
STARLINK-37617          
1 69314U 26119U   26166.50002315 -.02626247  00000+0 -20909-1 0  9990
2 69314  97.2843 192.2751 0001280  82.2011 357.0911 15.74408662  3776
STARLINK-37627          
1 69315U 26119V   26165.78717769 -.00576083  00000+0 -32969-2 0  9996
2 69315  97.2817 191.5290 0001425  72.4250 287.7173 15.80230891  3666
STARLINK-37738          
1 69316U 26119W   26166.50002315 -.02463046  00000+0 -19517-1 0  9991
2 69316  97.2842 192.2714 0001398  80.0606 350.2016 15.74887501  3776
